NORAD_CAT_ID,OBJECT_NAME,OBJECT_TYPE,EPOCH,MEAN_MOTION,ECCENTRICITY,INCLINATION,RA_OF_ASC_NODE,ARG_OF_PERICENTER,MEAN_ANOMALY,BSTAR,MEAN_MOTION_DOT,MEAN_MOTION_DDOT,TLE_LINE0,TLE_LINE1,TLE_LINE2,SEMIMAJOR_AXIS,PERIOD,APOGEE,PERIGEE,DECAYED
50201.0,STARLINK-3255,PAYLOAD,2024-05-06 20:50:26,15.08855548,0.0002009,53.2179,15.0542,85.6392,274.483,0.00022419,3.283e-05,0.0,0 STARLINK-3255,1 50201U 21125AX  24127.86836057  .00003283  00000-0  22419-3 0  9995,2 50201  53.2179  15.0542 0002009  85.6392 274.4830 15.08855548134834,6917.833,95.437,541.088,538.308,0.0
50201.0,STARLINK-3255,PAYLOAD,2024-05-06 22:25:49,15.08848155,0.0001655,53.219,14.7573,86.3768,273.7413,2.6032e-05,1.26e-06,0.0,0 STARLINK-3255,1 50201U 21125AX  24127.93460181  .00000126  00000-0  26032-4 0  9993,2 50201  53.2190  14.7573 0001655  86.3768 273.7413 15.08848155135328,6917.855,95.437,540.865,538.576,0.0
50201.0,STARLINK-3255,PAYLOAD,2024-05-07 09:33:30,15.08870188,0.0001479,53.2193,12.6753,74.8131,285.3024,0.0003589,5.433e-05,0.0,0 STARLINK-3255,1 50201U 21125AX  24128.39826832  .00005433  00000-0  35890-3 0  9990,2 50201  53.2193  12.6753 0001479  74.8131 285.3024 15.08870188134910,6917.788,95.436,540.676,538.63,0.0
50201.0,STARLINK-3255,PAYLOAD,2024-05-07 20:41:13,15.08832696,0.0001339,53.2174,10.593,86.0265,274.088,-0.00035221,-5.888e-05,0.0,0 STARLINK-3255,1 50201U 21125AX  24128.86195899 -.00005888  00000-0 -35221-3 0  9998,2 50201  53.2174  10.5930 0001339  86.0265 274.0880 15.08832696134985,6917.903,95.438,540.694,538.841,0.0
50201.0,STARLINK-3255,PAYLOAD,2024-05-07 22:16:36,15.08831891,0.0001306,53.2175,10.296,81.8197,278.2944,-0.00033317,-5.585e-05,0.0,0 STARLINK-3255,1 50201U 21125AX  24128.92820027 -.00005585  00000-0 -33317-3 0  9991,2 50201  53.2175  10.2960 0001306  81.8197 278.2944 15.08831891135475,6917.905,95.438,540.674,538.867,0.0
50201.0,STARLINK-3255,PAYLOAD,2024-05-08 09:24:18,15.08844934,0.0001277,53.2178,8.2142,84.3576,275.7562,9.1129e-05,1.163e-05,0.0,0 STARLINK-3255,1 50201U 21125AX  24129.39187741  .00001163  00000-0  91129-4 0  9994,2 50201  53.2178   8.2142 0001277  84.3576 275.7562 15.08844934135068,6917.865,95.437,540.614,538.847,0.0
50201.0,STARLINK-3255,PAYLOAD,2024-05-08 22:07:23,15.08842939,0.0001182,53.2172,5.8348,87.9236,272.1892,0.00028597,4.267e-05,0.0,0 STARLINK-3255,1 50201U 21125AX  24129.92180156  .00004267  00000-0  28597-3 0  9992,2 50201  53.2172   5.8348 0001182  87.9236 272.1892 15.08842939135622,6917.871,95.437,540.554,538.919,0.0
50201.0,STARLINK-3255,PAYLOAD,2024-05-09 09:15:05,15.08858068,0.0001357,53.2172,3.7542,86.4704,273.6444,0.0006855,0.00010644,0.0,0 STARLINK-3255,1 50201U 21125AX  24130.38547807  .00010644  00000-0  68550-3 0  9993,2 50201  53.2172   3.7542 0001357  86.4704 273.6444 15.08858068135699,6917.825,95.436,540.629,538.751,0.0
50201.0,STARLINK-3255,PAYLOAD,2024-05-09 20:22:47,15.08836584,0.0001213,53.2175,1.6727,88.7851,271.328,0.00012619,1.721e-05,0.0,0 STARLINK-3255,1 50201U 21125AX  24130.84916469  .00001721  00000-0  12619-3 0  9999,2 50201  53.2175   1.6727 0001213  88.7851 271.3280 15.08836584135280,6917.891,95.438,540.595,538.917,0.0
50201.0,STARLINK-3255,PAYLOAD,2024-05-09 21:58:10,15.0883958,0.0001257,53.218,1.3741,96.5796,263.534,0.00023252,3.415e-05,0.0,0 STARLINK-3255,1 50201U 21125AX  24130.91540411  .00003415  00000-0  23252-3 0  9994,2 50201  53.2180   1.3741 0001257  96.5796 263.5340 15.08839580135775,6917.882,95.438,540.616,538.877,0.0
50201.0,STARLINK-3255,PAYLOAD,2024-05-10 20:13:34,15.08908579,0.0001657,53.2184,357.21,107.4339,252.6835,0.0024594,0.00039145,0.0,0 STARLINK-3255,1 50201U 21125AX  24131.84275643  .00039145  00000-0  24594-2 0  9997,2 50201  53.2184 357.2100 0001657 107.4339 252.6835 15.08908579135436,6917.671,95.433,540.682,538.39,0.0
50201.0,STARLINK-3255,PAYLOAD,2024-05-10 21:48:57,15.08910044,0.0001906,53.2201,356.9133,112.3621,247.7573,0.0028817,0.00045962,0.0,0 STARLINK-3255,1 50201U 21125AX  24131.90899761  .00045962  00000-0  28817-2 0  9993,2 50201  53.2201 356.9133 0001906 112.3621 247.7573 15.08910044135922,6917.666,95.433,540.85,538.213,0.0
50201.0,STARLINK-3255,PAYLOAD,2024-05-11 21:39:43,15.08762558,0.0001724,53.2178,352.4541,69.0435,291.0742,-0.0046663,-0.00073638,0.0,0 STARLINK-3255,1 50201U 21125AX  24132.90258111 -.00073638  00000-0 -46663-2 0  9994,2 50201  53.2178 352.4541 0001724  69.0435 291.0742 15.08762558135596,6918.117,95.442,541.175,538.789,0.0
50201.0,STARLINK-3255,PAYLOAD,2024-05-12 15:09:02,15.08733763,0.0001131,53.2172,349.1815,68.5061,291.6051,-0.00032325,-5.413e-05,0.0,0 STARLINK-3255,1 50201U 21125AX  24133.63128069 -.00005413  00000-0 -32325-3 0  9990,2 50201  53.2172 349.1815 0001131  68.5061 291.6051 15.08733763136189,6918.205,95.444,540.853,539.288,0.0
50201.0,STARLINK-3255,PAYLOAD,2024-05-12 19:55:12,15.08781111,0.0001476,53.2177,348.2915,91.8834,268.2327,0.0021599,0.00034199,0.0,0 STARLINK-3255,1 50201U 21125AX  24133.83001151  .00034199  00000-0  21599-2 0  9995,2 50201  53.2177 348.2915 0001476  91.8834 268.2327 15.08781111135730,6918.06,95.441,540.947,538.904,0.0
50201.0,STARLINK-3255,PAYLOAD,2024-05-13 07:02:55,15.08817912,0.0001252,53.2173,346.2105,82.3289,277.7846,0.0010573,0.00016569,0.0,0 STARLINK-3255,1 50201U 21125AX  24134.29369586  .00016569  00000-0  10573-2 0  9996,2 50201  53.2173 346.2105 0001252  82.3289 277.7846 15.08817912136287,6917.948,95.439,540.679,538.947,0.0
50201.0,STARLINK-3255,PAYLOAD,2024-05-13 22:56:45,15.08862179,0.0001047,53.2157,343.2338,69.0798,291.0306,0.0010562,0.00016572,0.0,0 STARLINK-3255,1 50201U 21125AX  24134.95608512  .00016572  00000-0  10562-2 0  9996,2 50201  53.2157 343.2338 0001047  69.0798 291.0306 15.08862179135906,6917.813,95.436,540.402,538.953,0.0
50201.0,STARLINK-3255,PAYLOAD,2024-05-14 14:50:35,15.08885257,0.0001178,53.2166,340.2611,73.7436,286.3686,0.0010712,0.00016822,0.0,0 STARLINK-3255,1 50201U 21125AX  24135.61847000  .00016822  00000-0  10712-2 0  9992,2 50201  53.2166 340.2611 0001178  73.7436 286.3686 15.08885257136487,6917.742,95.435,540.422,538.792,0.0
50201.0,STARLINK-3255,PAYLOAD,2024-05-14 21:12:07,15.08899459,0.0001256,53.2173,339.0716,73.9089,286.2042,0.0012295,0.00019365,0.0,0 STARLINK-3255,1 50201U 21125AX  24135.88342018  .00019365  00000-0  12295-2 0  9993,2 50201  53.2173 339.0716 0001256  73.9089 286.2042 15.08899459136529,6917.699,95.434,540.433,538.695,0.0
50201.0,STARLINK-3255,PAYLOAD,2024-05-15 13:05:57,15.08854582,0.0001416,53.2157,336.0979,93.9727,266.1427,-0.00086934,-0.00014102,0.0,0 STARLINK-3255,1 50201U 21125AX  24136.54580784 -.00014102  00000-0 -86934-3 0  9999,2 50201  53.2157 336.0979 0001416  93.9727 266.1427 15.08854582136148,6917.836,95.437,540.68,538.721,0.0
50201.0,STARLINK-3255,PAYLOAD,2024-05-15 19:27:30,15.08850847,0.0001293,53.2168,334.9088,89.7085,270.4055,-0.00041317,-6.859e-05,0.0,0 STARLINK-3255,1 50201U 21125AX  24136.81076792 -.00006859  00000-0 -41317-3 0  9994,2 50201  53.2168 334.9088 0001293  89.7085 270.4055 15.08850847136663,6917.847,95.437,540.607,538.818,0.0
50201.0,STARLINK-3255,PAYLOAD,2024-05-15 22:38:16,15.08856503,0.0001256,53.2169,334.3135,96.1379,263.9756,0.0002124,3.096e-05,0.0,0 STARLINK-3255,1 50201U 21125AX  24136.94324676  .00003096  00000-0  21240-3 0  9996,2 50201  53.2169 334.3135 0001256  96.1379 263.9756 15.08856503136208,6917.83,95.437,540.564,538.826,0.0
50201.0,STARLINK-3255,PAYLOAD,2024-05-16 12:56:45,15.08862701,0.000275,53.2162,331.6373,96.9689,263.1616,0.0015938,0.00025185,0.0,0 STARLINK-3255,1 50201U 21125AX  24137.53941159  .00025185  00000-0  15938-2 0  9992,2 50201  53.2162 331.6373 0002750  96.9689 263.1616 15.08862701136290,6917.811,95.436,541.578,537.774,0.0
50201.0,STARLINK-3255,PAYLOAD,2024-05-16 19:18:17,15.08859032,0.0002346,53.2161,330.4471,103.0773,257.0482,0.00090866,0.00014211,0.0,0 STARLINK-3255,1 50201U 21125AX  24137.80436811  .00014211  00000-0  90866-3 0  9998,2 50201  53.2161 330.4471 0002346 103.0773 257.0482 15.08859032136331,6917.822,95.436,541.31,538.064,0.0
50201.0,STARLINK-3255,PAYLOAD,2024-05-17 12:47:31,15.08847168,0.0001298,53.2143,327.1758,122.7698,237.342,0.00054038,8.324e-05,0.0,0 STARLINK-3255,1 50201U 21125AX  24138.53300801  .00008324  00000-0  54038-3 0  9997,2 50201  53.2143 327.1758 0001298 122.7698 237.3420 15.08847168136443,6917.858,95.437,540.621,538.826,0.0
50201.0,STARLINK-3255,PAYLOAD,2024-05-17 19:09:04,15.08835952,0.000112,53.2159,325.9867,92.4735,267.6386,4.162e-05,3.75e-06,0.0,0 STARLINK-3255,1 50201U 21125AX  24138.79797132  .00000375  00000-0  41620-4 0  9994,2 50201  53.2159 325.9867 0001120  92.4735 267.6386 15.08835952136485,6917.893,95.438,540.533,538.983,0.0
50201.0,STARLINK-3255,PAYLOAD,2024-05-17 22:19:51,15.08836957,0.0001503,53.2172,325.3917,93.49,266.6264,0.00029331,4.383e-05,0.0,0 STARLINK-3255,1 50201U 21125AX  24138.93045152  .00004383  00000-0  29331-3 0  9995,2 50201  53.2172 325.3917 0001503  93.4900 266.6264 15.08836957136985,6917.89,95.438,540.794,538.715,0.0
50201.0,STARLINK-3255,PAYLOAD,2024-05-18 18:59:51,15.08855008,0.0001245,53.2182,321.5248,86.2078,273.9057,0.00069981,0.00010872,0.0,0 STARLINK-3255,1 50201U 21125AX  24139.79156806  .00010872  00000-0  69981-3 0  9994,2 50201  53.2182 321.5248 0001245  86.2078 273.9057 15.08855008136631,6917.835,95.437,540.561,538.838,0.0
50201.0,STARLINK-3255,PAYLOAD,2024-05-18 22:10:37,15.08859157,0.0001195,53.2182,320.9298,87.5494,272.5635,0.00074888,0.00011657,0.0,0 STARLINK-3255,1 50201U 21125AX  24139.92404588  .00011657  00000-0  74888-3 0  9996,2 50201  53.2182 320.9298 0001195  87.5494 272.5635 15.08859157137131,6917.822,95.436,540.514,538.86,0.0
50201.0,STARLINK-3255,PAYLOAD,2024-05-19 04:32:09,15.08876554,0.0001031,53.2182,319.7448,86.5996,273.5114,0.0010309,0.00016173,0.0,0 STARLINK-3255,1 50201U 21125AX  24140.18899775  .00016173  00000-0  10309-2 0  9997,2 50201  53.2182 319.7448 0001031  86.5996 273.5114 15.08876554136692,6917.769,95.435,540.347,538.92,0.0
